{
  "type": "FeatureCollection",
  "features": [
    {
      "type": "Feature",
      "properties": {
        "norad_id": 39160,
        "name": "VNREDSAT 1",
        "group": "resource",
        "lat": 43.64722981056512,
        "lon": 36.172309737666325,
        "alt_km": 672.8884578350362,
        "timestamp": "2025-12-14T14:39:29.033356+00:00",
        "meta_object_name": "VNREDSAT 1",
        "meta_object_id": "2013-021B",
        "meta_epoch": "2025-12-13T23:42:12.547008",
        "meta_mean_motion": 14.64925896,
        "meta_eccentricity": 0.00013081,
        "meta_inclination": 97.9372,
        "meta_ra_of_asc_node": 43.2186,
        "meta_arg_of_pericenter": 79.455,
        "meta_mean_anomaly": 280.6801,
        "meta_ephemeris_type": 0,
        "meta_classification_type": "U",
        "meta_norad_cat_id": 39160,
        "meta_element_set_no": 999,
        "meta_rev_at_epoch": 67317,
        "meta_bstar": 0.00020683809,
        "meta_mean_motion_dot": 1.061e-05,
        "meta_mean_motion_ddot": 0,
        "tle_line1": "1 39160U 13021B   25347.98764522  .00001061  00000+0  20684-3 0  9990",
        "tle_line2": "2 39160  97.9372  43.2186 0001308  79.4550 280.6801 14.64925896673177"
      },
      "geometry": {
        "type": "Point",
        "coordinates": [
          36.172309737666325,
          43.64722981056512
        ]
      }
    },
    {
      "type": "Feature",
      "properties": {
        "norad_id": 39227,
        "name": "ARIRANG-5 (KOMPSAT-5)",
        "group": "resource",
        "lat": 28.47694994325447,
        "lon": 168.72627421386534,
        "alt_km": 549.450148363584,
        "timestamp": "2025-12-14T14:39:29.033366+00:00",
        "meta_object_name": "ARIRANG-5 (KOMPSAT-5)",
        "meta_object_id": "2013-042A",
        "meta_epoch": "2025-12-14T00:09:53.961984",
        "meta_mean_motion": 15.0451652,
        "meta_eccentricity": 0.00035522,
        "meta_inclination": 97.6146,
        "meta_ra_of_asc_node": 172.2927,
        "meta_arg_of_pericenter": 52.0372,
        "meta_mean_anomaly": 308.1175,
        "meta_ephemeris_type": 0,
        "meta_classification_type": "U",
        "meta_norad_cat_id": 39227,
        "meta_element_set_no": 999,
        "meta_rev_at_epoch": 67601,
        "meta_bstar": 0.00034287638,
        "meta_mean_motion_dot": 4.743e-05,
        "meta_mean_motion_ddot": 0,
        "tle_line1": "1 39227U 13042A   25348.00687456  .00004743  00000+0  34288-3 0  9996",
        "tle_line2": "2 39227  97.6146 172.2927 0003552  52.0372 308.1175 15.04516520676016"
      },
      "geometry": {
        "type": "Point",
        "coordinates": [
          168.72627421386534,
          28.47694994325447
        ]
      }
    },
    {
      "type": "Feature",
      "properties": {
        "norad_id": 39418,
        "name": "SKYSAT-A",
        "group": "resource",
        "lat": 82.56869802278567,
        "lon": -47.584943200111766,
        "alt_km": 534.7527207724434,
        "timestamp": "2025-12-14T14:39:29.033377+00:00",
        "meta_object_name": "SKYSAT-A",
        "meta_object_id": "2013-066C",
        "meta_epoch": "2025-12-13T22:22:29.760960",
        "meta_mean_motion": 15.11617108,
        "meta_eccentricity": 0.00207025,
        "meta_inclination": 97.4113,
        "meta_ra_of_asc_node": 38.1046,
        "meta_arg_of_pericenter": 232.0185,
        "meta_mean_anomaly": 127.9177,
        "meta_ephemeris_type": 0,
        "meta_classification_type": "U",
        "meta_norad_cat_id": 39418,
        "meta_element_set_no": 999,
        "meta_rev_at_epoch": 66048,
        "meta_bstar": 0.00025160952,
        "meta_mean_motion_dot": 4.232e-05,
        "meta_mean_motion_ddot": 0,
        "tle_line1": "1 39418U 13066C   25347.93228890  .00004232  00000+0  25161-3 0  9991",
        "tle_line2": "2 39418  97.4113  38.1046 0020702 232.0185 127.9177 15.11617108660485"
      },
      "geometry": {
        "type": "Point",
        "coordinates": [
          -47.584943200111766,
          82.56869802278567
        ]
      }
    },
    {
      "type": "Feature",
      "properties": {
        "norad_id": 39419,
        "name": "DUBAISAT-2",
        "group": "resource",
        "lat": -29.680993978325954,
        "lon": 154.6860027940213,
        "alt_km": 549.0318397518467,
        "timestamp": "2025-12-14T14:39:29.033387+00:00",
        "meta_object_name": "DUBAISAT-2",
        "meta_object_id": "2013-066D",
        "meta_epoch": "2025-12-13T23:24:02.451168",
        "meta_mean_motion": 15.08380447,
        "meta_eccentricity": 0.00104491,
        "meta_inclination": 97.4455,
        "meta_ra_of_asc_node": 338.3443,
        "meta_arg_of_pericenter": 317.4318,
        "meta_mean_anomaly": 42.61,
        "meta_ephemeris_type": 0,
        "meta_classification_type": "U",
        "meta_norad_cat_id": 39419,
        "meta_element_set_no": 999,
        "meta_rev_at_epoch": 65845,
        "meta_bstar": 0.00049143256,
        "meta_mean_motion_dot": 7.589e-05,
        "meta_mean_motion_ddot": 0,
        "tle_line1": "1 39419U 13066D   25347.97502837  .00007589  00000+0  49143-3 0  9996",
        "tle_line2": "2 39419  97.4455 338.3443 0010449 317.4318  42.6100 15.08380447658456"
      },
      "geometry": {
        "type": "Point",
        "coordinates": [
          154.6860027940213,
          -29.680993978325954
        ]
      }
    },
    {
      "type": "Feature",
      "properties": {
        "norad_id": 39574,
        "name": "GPM-CORE",
        "group": "resource",
        "lat": -47.63028033109854,
        "lon": 57.22663146164708,
        "alt_km": 432.14102441615614,
        "timestamp": "2025-12-14T14:39:29.033397+00:00",
        "meta_object_name": "GPM-CORE",
        "meta_object_id": "2014-009C",
        "meta_epoch": "2025-12-13T23:39:33.413760",
        "meta_mean_motion": 15.44491005,
        "meta_eccentricity": 0.00097716,
        "meta_inclination": 64.9735,
        "meta_ra_of_asc_node": 208.508,
        "meta_arg_of_pericenter": 245.6502,
        "meta_mean_anomaly": 114.3619,
        "meta_ephemeris_type": 0,
        "meta_classification_type": "U",
        "meta_norad_cat_id": 39574,
        "meta_element_set_no": 999,
        "meta_rev_at_epoch": 66920,
        "meta_bstar": 0.00019963331,
        "meta_mean_motion_dot": 9.074e-05,
        "meta_mean_motion_ddot": 0,
        "tle_line1": "1 39574U 14009C   25347.98580340  .00009074  00000+0  19963-3 0  9990",
        "tle_line2": "2 39574  64.9735 208.5080 0009771 245.6502 114.3619 15.44491005669206"
      },
      "geometry": {
        "type": "Point",
        "coordinates": [
          57.22663146164708,
          -47.63028033109854
        ]
      }
    },
    {
      "type": "Feature",
      "properties": {
        "norad_id": 39634,
        "name": "SENTINEL-1A",
        "group": "resource",
        "lat": -46.2537838197711,
        "lon": 165.1810362727921,
        "alt_km": 703.2435177545522,
        "timestamp": "2025-12-14T14:39:29.033407+00:00",
        "meta_object_name": "SENTINEL-1A",
        "meta_object_id": "2014-016A",
        "meta_epoch": "2025-12-14T00:27:22.491648",
        "meta_mean_motion": 14.59197931,
        "meta_eccentricity": 0.00012296,
        "meta_inclination": 98.1807,
        "meta_ra_of_asc_node": 353.2418,
        "meta_arg_of_pericenter": 84.8832,
        "meta_mean_anomaly": 275.2508,
        "meta_ephemeris_type": 0,
        "meta_classification_type": "U",
        "meta_norad_cat_id": 39634,
        "meta_element_set_no": 999,
        "meta_rev_at_epoch": 62301,
        "meta_bstar": -0.00045384247,
        "meta_mean_motion_dot": -2.184e-05,
        "meta_mean_motion_ddot": 0,
        "tle_line1": "1 39634U 14016A   25348.01901032 -.00002184  00000+0 -45384-3 0  9998",
        "tle_line2": "2 39634  98.1807 353.2418 0001229  84.8832 275.2508 14.59197931623013"
      },
      "geometry": {
        "type": "Point",
        "coordinates": [
          165.1810362727921,
          -46.2537838197711
        ]
      }
    },
    {
      "type": "Feature",
      "properties": {
        "norad_id": 39731,
        "name": "KAZEOSAT 1",
        "group": "resource",
        "lat": 80.77074839345958,
        "lon": -4.09366871125963,
        "alt_km": 743.4641677229129,
        "timestamp": "2025-12-14T14:39:29.033417+00:00",
        "meta_object_name": "KAZEOSAT 1",
        "meta_object_id": "2014-024A",
        "meta_epoch": "2025-12-13T23:16:24.048192",
        "meta_mean_motion": 14.42063848,
        "meta_eccentricity": 0.00011172,
        "meta_inclination": 98.3429,
        "meta_ra_of_asc_node": 59.8491,
        "meta_arg_of_pericenter": 96.0726,
        "meta_mean_anomaly": 264.0591,
        "meta_ephemeris_type": 0,
        "meta_classification_type": "U",
        "meta_norad_cat_id": 39731,
        "meta_element_set_no": 999,
        "meta_rev_at_epoch": 61186,
        "meta_bstar": 0.00013754841,
        "meta_mean_motion_dot": 4.09e-06,
        "meta_mean_motion_ddot": 0,
        "tle_line1": "1 39731U 14024A   25347.96972278  .00000409  00000+0  13755-3 0  9991",
        "tle_line2": "2 39731  98.3429  59.8491 0001117  96.0726 264.0591 14.42063848611865"
      },
      "geometry": {
        "type": "Point",
        "coordinates": [
          -4.09366871125963,
          80.77074839345958
        ]
      }
    }
  ]
}